[
  {
    "name": "ONEWEB-0275",
    "noradId": "48993",
    "line1": "1 48993U 21060AC  26164.88556782 -.00000022  00000+0 -92264-4 0  9992",
    "line2": "2 48993  87.9100 229.4311 0001956  95.8014 264.3340 13.16594530239126"
  },
  {
    "name": "ONEWEB-0276",
    "noradId": "48994",
    "line1": "1 48994U 21060AD  26164.91881153  .00000007  00000+0 -14835-4 0  9990",
    "line2": "2 48994  87.9096 229.4242 0001993  93.4340 266.7019 13.16593382239146"
  },
  {
    "name": "ONEWEB-0277",
    "noradId": "48995",
    "line1": "1 48995U 21060AE  26164.93148552  .00000114  00000+0  26385-3 0  9992",
    "line2": "2 48995  87.9092 229.4306 0001892 100.9584 259.1760 13.16593212239136"
  },
  {
    "name": "ONEWEB-0278",
    "noradId": "48996",
    "line1": "1 48996U 21060AF  26164.92195801 -.00000600  00000+0 -16041-2 0  9990",
    "line2": "2 48996  87.9100 229.4226 0002264 100.7252 259.4134 13.16596070239269"
  },
  {
    "name": "ONEWEB-0279",
    "noradId": "48997",
    "line1": "1 48997U 21060AG  26164.92989685  .00000167  00000+0  40245-3 0  9992",
    "line2": "2 48997  87.9099 229.4192 0001763  96.6621 263.4710 13.16594199239192"
  },
  {
    "name": "ONEWEB-0280",
    "noradId": "48998",
    "line1": "1 48998U 21060AH  26164.86893255  .00000102  00000+0  23245-3 0  9993",
    "line2": "2 48998  87.9098 229.4354 0002058 107.7313 252.4042 13.16594005239127"
  },
  {
    "name": "ONEWEB-0281",
    "noradId": "48999",
    "line1": "1 48999U 21060AJ  26164.87448261  .00000060  00000+0  12420-3 0  9994",
    "line2": "2 48999  87.9101 229.4294 0002096  98.2971 261.8398 13.16595339239198"
  },
  {
    "name": "ONEWEB-0282",
    "noradId": "49000",
    "line1": "1 49000U 21060AK  26164.90454374 -.00000246  00000+0 -67733-3 0  9999",
    "line2": "2 49000  87.9096 229.4322 0001986 101.5529 258.5825 13.16593272239171"
  },
  {
    "name": "ONEWEB-0283",
    "noradId": "49001",
    "line1": "1 49001U 21060AL  26164.89347738 -.00000082  00000+0 -24919-3 0  9990",
    "line2": "2 49001  87.9098 229.4335 0001904  97.2041 262.9306 13.16593974239181"
  },
  {
    "name": "ONEWEB-0284",
    "noradId": "49002",
    "line1": "1 49002U 21060AM  26164.73515626 -.00000076  00000+0 -23322-3 0  9997",
    "line2": "2 49002  87.9100 229.4581 0002226 105.9551 254.1826 13.16594241239144"
  },
  {
    "name": "ONEWEB-0285",
    "noradId": "49075",
    "line1": "1 49075U 21075A   26164.93453705 -.00000347  00000+0 -10006-2 0  9999",
    "line2": "2 49075  87.8947 351.3088 0001763  91.9676 268.1655 13.12444220234783"
  },
  {
    "name": "ONEWEB-0286",
    "noradId": "49076",
    "line1": "1 49076U 21075B   26164.91661349 -.00000176  00000+0 -52463-3 0  9997",
    "line2": "2 49076  87.8937 351.3295 0001996  87.0410 273.0947 13.12441944234131"
  },
  {
    "name": "ONEWEB-0287",
    "noradId": "49077",
    "line1": "1 49077U 21075C   26164.82545973  .00000096  00000+0  21534-3 0  9996",
    "line2": "2 49077  87.9134   6.5349 0002288  86.2117 273.9276 13.17649970233183"
  },
  {
    "name": "ONEWEB-0288",
    "noradId": "49078",
    "line1": "1 49078U 21075D   26164.89304101  .00000413  00000+0  11137-2 0  9990",
    "line2": "2 49078  87.8946 351.3105 0002035  92.7928 267.3434 13.12442573234759"
  },
  {
    "name": "ONEWEB-0289",
    "noradId": "49079",
    "line1": "1 49079U 21075E   26164.94007089  .00000110  00000+0  24966-3 0  9991",
    "line2": "2 49079  87.9141   6.5286 0001807 100.4221 259.7115 13.17650207233778"
  },
  {
    "name": "ONEWEB-0290",
    "noradId": "49080",
    "line1": "1 49080U 21075F   26164.83727925  .00000074  00000+0  15714-3 0  9999",
    "line2": "2 49080  87.9143   6.5209 0001739 104.1811 255.9514 13.17648337233173"
  },
  {
    "name": "ONEWEB-0291",
    "noradId": "49081",
    "line1": "1 49081U 21075G   26164.59428220  .00000010  00000+0 -65955-5 0  9994",
    "line2": "2 49081  87.9138   6.5773 0002171  93.9997 266.1382 13.17649277233132"
  },
  {
    "name": "ONEWEB-0293",
    "noradId": "49082",
    "line1": "1 49082U 21075H   26164.92332994  .00000032  00000+0  49906-4 0  9994",
    "line2": "2 49082  87.9134   6.5149 0001854  92.9074 267.2270 13.17648051233203"
  },
  {
    "name": "ONEWEB-0294",
    "noradId": "49083",
    "line1": "1 49083U 21075J   26164.89981690  .00000301  00000+0  80104-3 0  9997",
    "line2": "2 49083  87.8948 351.3127 0001759 101.2707 258.8619 13.12442759234143"
  },
  {
    "name": "ONEWEB-0295",
    "noradId": "49084",
    "line1": "1 49084U 21075K   26164.92248992  .00000047  00000+0  88445-4 0  9997",
    "line2": "2 49084  87.9134   6.5191 0002157  90.4315 269.7064 13.17648057233169"
  },
  {
    "name": "ONEWEB-0296",
    "noradId": "49085",
    "line1": "1 49085U 21075L   26164.87948357  .00000225  00000+0  59115-3 0  9993",
    "line2": "2 49085  87.8952 351.3242 0002132  94.6745 265.4627 13.12443993234145"
  },
  {
    "name": "ONEWEB-0297",
    "noradId": "49086",
    "line1": "1 49086U 21075M   26164.90997512  .00000047  00000+0  95818-4 0  9998",
    "line2": "2 49086  87.8937 351.3293 0001909  89.9747 270.1600 13.12442575234751"
  },
  {
    "name": "ONEWEB-0298",
    "noradId": "49087",
    "line1": "1 49087U 21075N   26164.85090990 -.00000012  00000+0 -64773-4 0  9997",
    "line2": "2 49087  87.9135   6.5314 0001918  84.6577 275.4774 13.17647169233186"
  },
  {
    "name": "ONEWEB-0299",
    "noradId": "49088",
    "line1": "1 49088U 21075P   26164.92840044  .00000030  00000+0  43392-4 0  9991",
    "line2": "2 49088  87.9143   6.4958 0001998  87.3294 272.8066 13.17650391233178"
  },
  {
    "name": "ONEWEB-0300",
    "noradId": "49089",
    "line1": "1 49089U 21075Q   26164.90234970  .00000293  00000+0  77939-3 0  9999",
    "line2": "2 49089  87.8949 351.3098 0001863  78.2884 281.8454 13.12443487234773"
  },
  {
    "name": "ONEWEB-0301",
    "noradId": "49090",
    "line1": "1 49090U 21075R   26164.88625636  .00000386  00000+0  10363-2 0  9991",
    "line2": "2 49090  87.8947 351.3115 0001721  79.2637 280.8685 13.12444837234138"
  },
  {
    "name": "ONEWEB-0302",
    "noradId": "49091",
    "line1": "1 49091U 21075S   26164.79647011  .00000107  00000+0  26076-3 0  9993",
    "line2": "2 49091  87.8950 351.3410 0001897  99.5793 260.5550 13.12444685234107"
  },
  {
    "name": "ONEWEB-0304",
    "noradId": "49092",
    "line1": "1 49092U 21075T   26164.82714893  .00000067  00000+0  14001-3 0  9991",
    "line2": "2 49092  87.9134   6.5389 0002026  88.3232 271.8132 13.17649065233133"
  },
  {
    "name": "ONEWEB-0305",
    "noradId": "49093",
    "line1": "1 49093U 21075U   26164.82040144  .00000004  00000+0 -22743-4 0  9998",
    "line2": "2 49093  87.9143   6.5244 0002258  87.0563 273.0827 13.17648655233166"
  },
  {
    "name": "ONEWEB-0308",
    "noradId": "49094",
    "line1": "1 49094U 21075V   26164.94216285 -.00000149  00000+0 -44867-3 0  9994",
    "line2": "2 49094  87.8949 351.3043 0001815  90.0924 270.0413 13.12444237234132"
  }
]