OBJECT_NAME,OBJECT_ID,EPOCH,MEAN_MOTION,ECCENTRICITY,INCLINATION,RA_OF_ASC_NODE,ARG_OF_PERICENTER,MEAN_ANOMALY,EPHEMERIS_TYPE,CLASSIFICATION_TYPE,NORAD_CAT_ID,ELEMENT_SET_NO,REV_AT_EPOCH,BSTAR,MEAN_MOTION_DOT,MEAN_MOTION_DDOT
ONEWEB-0275,2021-060AC,2026-06-13T21:15:13.059648,13.16594530,.00019563,87.9100,229.4311,95.8014,264.3340,0,U,48993,999,23912,-.92264493E-4,-.22E-6,0
ONEWEB-0276,2021-060AD,2026-06-13T22:03:05.316192,13.16593382,.0001993,87.9096,229.4242,93.4340,266.7019,0,U,48994,999,23914,-.14834655E-4,.7E-7,0
ONEWEB-0277,2021-060AE,2026-06-13T22:21:20.348928,13.16593212,.00018928,87.9092,229.4306,100.9584,259.1760,0,U,48995,999,23913,.26384868E-3,.114E-5,0
ONEWEB-0278,2021-060AF,2026-06-13T22:07:37.172064,13.16596070,.00022645,87.9100,229.4226,100.7252,259.4134,0,U,48996,999,23926,-.1604096E-2,-.6E-5,0
ONEWEB-0279,2021-060AG,2026-06-13T22:19:03.087840,13.16594199,.00017635,87.9099,229.4192,96.6621,263.4710,0,U,48997,999,23919,.40244684E-3,.167E-5,0
ONEWEB-0280,2021-060AH,2026-06-13T20:51:15.772320,13.16594005,.00020584,87.9098,229.4354,107.7313,252.4042,0,U,48998,999,23912,.232449E-3,.102E-5,0
ONEWEB-0281,2021-060AJ,2026-06-13T20:59:15.297504,13.16595339,.00020961,87.9101,229.4294,98.2971,261.8398,0,U,48999,999,23919,.12419533E-3,.6E-6,0
ONEWEB-0282,2021-060AK,2026-06-13T21:42:32.579136,13.16593272,.00019863,87.9096,229.4322,101.5529,258.5825,0,U,49000,999,23917,-.67732828E-3,-.246E-5,0
ONEWEB-0283,2021-060AL,2026-06-13T21:26:36.445632,13.16593974,.00019041,87.9098,229.4335,97.2041,262.9306,0,U,49001,999,23918,-.24918568E-3,-.82E-6,0
ONEWEB-0284,2021-060AM,2026-06-13T17:38:37.500864,13.16594241,.00022269,87.9100,229.4581,105.9551,254.1826,0,U,49002,999,23914,-.23321964E-3,-.76E-6,0
ONEWEB-0285,2021-075A,2026-06-13T22:25:44.001120,13.12444220,.00017637,87.8947,351.3088,91.9676,268.1655,0,U,49075,999,23478,-.10005626E-2,-.347E-5,0
ONEWEB-0286,2021-075B,2026-06-13T21:59:55.405536,13.12441944,.00019969,87.8937,351.3295,87.0410,273.0947,0,U,49076,999,23413,-.52463378E-3,-.176E-5,0
ONEWEB-0287,2021-075C,2026-06-13T19:48:39.720672,13.17649970,.0002288,87.9134,6.5349,86.2117,273.9276,0,U,49077,999,23318,.21534184E-3,.96E-6,0
ONEWEB-0288,2021-075D,2026-06-13T21:25:58.743264,13.12442573,.00020353,87.8946,351.3105,92.7928,267.3434,0,U,49078,999,23475,.11137044E-2,.413E-5,0
ONEWEB-0289,2021-075E,2026-06-13T22:33:42.124896,13.17650207,.00018075,87.9141,6.5286,100.4221,259.7115,0,U,49079,999,23377,.24966434E-3,.11E-5,0
ONEWEB-0290,2021-075F,2026-06-13T20:05:40.927200,13.17648337,.00017394,87.9143,6.5209,104.1811,255.9514,0,U,49080,999,23317,.15714291E-3,.74E-6,0
ONEWEB-0291,2021-075G,2026-06-13T14:15:45.982080,13.17649277,.0002171,87.9138,6.5773,93.9997,266.1382,0,U,49081,999,23313,-.65955E-5,.1E-6,0
ONEWEB-0293,2021-075H,2026-06-13T22:09:35.706816,13.17648051,.00018545,87.9134,6.5149,92.9074,267.2270,0,U,49082,999,23320,.49905919E-4,.32E-6,0
ONEWEB-0294,2021-075J,2026-06-13T21:35:44.180160,13.12442759,.00017598,87.8948,351.3127,101.2707,258.8619,0,U,49083,999,23414,.80103603E-3,.301E-5,0
ONEWEB-0295,2021-075K,2026-06-13T22:08:23.129088,13.17648057,.0002157,87.9134,6.5191,90.4315,269.7064,0,U,49084,999,23316,.88445105E-4,.47E-6,0
ONEWEB-0296,2021-075L,2026-06-13T21:06:27.380448,13.12443993,.00021321,87.8952,351.3242,94.6745,265.4627,0,U,49085,999,23414,.59114698E-3,.225E-5,0
ONEWEB-0297,2021-075M,2026-06-13T21:50:21.850368,13.12442575,.00019095,87.8937,351.3293,89.9747,270.1600,0,U,49086,999,23475,.95817877E-4,.47E-6,0
ONEWEB-0298,2021-075N,2026-06-13T20:25:18.615360,13.17647169,.00019187,87.9135,6.5314,84.6577,275.4774,0,U,49087,999,23318,-.6477264E-4,-.12E-6,0
ONEWEB-0299,2021-075P,2026-06-13T22:16:53.798016,13.17650391,.00019981,87.9143,6.4958,87.3294,272.8066,0,U,49088,999,23317,.43391979E-4,.3E-6,0
ONEWEB-0300,2021-075Q,2026-06-13T21:39:23.014080,13.12443487,.00018638,87.8949,351.3098,78.2884,281.8454,0,U,49089,999,23477,.77938646E-3,.293E-5,0
ONEWEB-0301,2021-075R,2026-06-13T21:16:12.549504,13.12444837,.0001721,87.8947,351.3115,79.2637,280.8685,0,U,49090,999,23413,.10363054E-2,.386E-5,0
ONEWEB-0302,2021-075S,2026-06-13T19:06:55.017504,13.12444685,.00018972,87.8950,351.3410,99.5793,260.5550,0,U,49091,999,23410,.26075625E-3,.107E-5,0
ONEWEB-0304,2021-075T,2026-06-13T19:51:05.667552,13.17649065,.00020261,87.9134,6.5389,88.3232,271.8132,0,U,49092,999,23313,.14001461E-3,.67E-6,0
ONEWEB-0305,2021-075U,2026-06-13T19:41:22.684416,13.17648655,.00022582,87.9143,6.5244,87.0563,273.0827,0,U,49093,999,23316,-.22743487E-4,.4E-7,0
ONEWEB-0308,2021-075V,2026-06-13T22:36:42.870240,13.12444237,.00018153,87.8949,351.3043,90.0924,270.0413,0,U,49094,999,23413,-.44866754E-3,-.149E-5,0
